satname,norad_id,inclination_deg,eccentricity,mean_motion_rev_per_day,perigee_km,apogee_km,l1,l2
STARLINK-1184,45098,53.0551,0.0006016,15.09469407,533.6595722273578,541.9808519449398,1 45098U 20006BG  26045.23254502  .00027592  00000+0  17146-2 0  9999,2 45098  53.0551 351.2815 0006016  68.6995 291.4637 15.09469407333497
STARLINK-1193,45100,53.0542,0.0005153,15.48095196,418.79434302869777,425.802871965785,1 45100U 20006BJ  26045.20004060  .00096761  00000+0  18004-2 0  9990,2 45100  53.0542 343.3610 0005153 114.8941 245.2602 15.48095196333607
STARLINK-1143,45179,53.0478,0.0004614,15.56985138,393.26244429605504,399.51397616005397,1 45179U 20012B   26045.49654839  .00036423  00000+0  50012-3 0  9994,2 45179  53.0478  82.8224 0004614 351.2278   8.8651 15.56985138332304
STARLINK-1202,45183,53.1598,0.0001321,15.30194795,474.32528079380245,476.13594051653763,1 45183U 20012F   26045.43645502  .00003451  00000+0  12859-3 0  9992,2 45183  53.1598 147.2601 0001321  89.6457 270.4695 15.30194795331397
STARLINK-1216,45185,53.1624,0.0001189,15.30187538,474.43741097229486,476.06714694283073,1 45185U 20012H   26045.55761279  .00000491  00000+0  28720-4 0  9993,2 45185  53.1624 146.6748 0001189 104.5017 255.6115 15.30187538331350
STARLINK-1225,45187,53.1621,0.000128,15.30188339,474.3726537629527,476.1271208060971,1 45187U 20012K   26045.55450890  .00006312  00000+0  22514-3 0  9991,2 45187  53.1621 147.1325 0001280  88.7554 271.3593 15.30188339331396
STARLINK-1230,45189,53.1616,0.0001142,15.30205194,474.4169100801364,475.982212150695,1 45189U 20012M   26045.56399294  .00003999  00000+0  14706-3 0  9996,2 45189  53.1616 147.1465 0001142  99.2119 260.9011 15.30205194328628
STARLINK-1234,45190,53.0455,0.0006422,15.56806593,392.55523286960397,401.25709831148833,1 45190U 20012N   26045.38686556  .00125821  00000+0  17027-2 0  9995,2 45190  53.0455  78.7216 0006422 258.7253 101.3036 15.56806593332246
STARLINK-1269,45197,53.1618,0.0001035,15.30196025,474.51761491092657,475.93626124611,1 45197U 20012V   26045.56081825  .00001092  00000+0  48987-4 0  9994,2 45197  53.1618 147.0177 0001035  94.6839 265.4279 15.30196025331371
STARLINK-1154,45198,53.0508,0.0006068,15.42412562,434.85473919888227,443.12800619198424,1 45198U 20012W   26045.57842406  .00013761  00000+0  32225-3 0  9999,2 45198  53.0508 119.9207 0006068 359.8279   0.2722 15.42412562331723
STARLINK-1199,45201,53.0688,0.0002056,15.10934628,531.9273453762735,534.7693481508622,1 45201U 20012Z   26045.66668981  .00084335  00000+0  49600-2 0  9997,2 45201  53.0688 129.9490 0002056  65.2266  65.1994 15.10934628  5691
STARLINK-1209,45206,53.0484,0.000764,15.46778171,420.9597929904312,431.35675616999015,1 45206U 20012AE  26045.50870318  .00088052  00000+0  17166-2 0  9996,2 45206  53.0484  84.4804 0007640 222.7256 137.3157 15.46778171331320
STARLINK-1210,45207,53.0101,0.0006085,15.98308515,275.06052435927813,283.16239573515486,1 45207U 20012AF  26045.66668981  .00404783  79374-4  85290-3 0  9997,2 45207  53.0101  18.5027 0006085  81.5246  16.7109 15.98308515  5967
STARLINK-1231,45212,53.0458,0.0002823,15.19101602,506.6103601591676,510.49858616491565,1 45212U 20012AL  26045.46928630  .00042989  00000+0  20261-2 0  9998,2 45212  53.0458 122.2548 0002823 350.7234   9.3707 15.19101602331698
STARLINK-1271,45217,53.0604,0.0001512,15.07305454,543.3911677971073,545.4845544351083,1 45217U 20012AR  26045.56363796  .00114616  00000+0  74061-2 0  9994,2 45217  53.0604 130.4279 0001512 117.5381 242.5762 15.07305454331638
STARLINK-1191,45222,53.1601,0.0001461,15.3102372,471.7557771790216,473.75760831604384,1 45222U 20012AW  26045.42318251  .00000575  00000+0  30849-4 0  9997,2 45222  53.1601 106.9584 0001461  97.5676 262.5491 15.31023720331952
STARLINK-1212,45223,53.0533,0.0004457,15.44086073,431.0285918683803,437.10098854417083,1 45223U 20012AX  26045.61377405  .00054680  00000+0  11779-2 0  9990,2 45223  53.0533 100.5344 0004457  21.5856 338.5336 15.44086073332064
STARLINK-1215,45225,53.1588,0.0001131,15.30193908,474.45814291727675,476.0083752698847,1 45225U 20012AZ  26045.59960015  .00005250  00000+0  18928-3 0  9997,2 45225  53.1588 105.5565 0001131  92.6922 267.4208 15.30193908331941
STARLINK-1221,45227,53.0673,0.0002246,15.41023454,441.5554370001446,444.6195310383655,1 45227U 20012BB  26045.24614942  .00017759  00000+0  43252-3 0  9991,2 45227  53.0673  20.6260 0002246 345.6447  14.4493 15.41023454333091
STARLINK-1222,45228,53.0557,0.0002828,15.47751736,421.38117439456073,425.2280697760116,1 45228U 20012BC  26045.45409535  .00057460  00000+0  10911-2 0  9993,2 45228  53.0557  94.0842 0002828  29.3612 330.7553 15.47751736332020
STARLINK-1226,45229,53.1614,0.0001457,15.3103419,471.7272887595591,473.7236300802342,1 45229U 20012BD  26045.57035043 -.00000291  00000+0  23466-5 0  9999,2 45229  53.1614 106.0745 0001457  85.0229 275.0939 15.31034190331874
STARLINK-1227,45230,53.1593,0.0001346,15.31031112,471.8125141213777,473.656768767255,1 45230U 20012BE  26045.46744905  .00000430  00000+0  26081-4 0  9992,2 45230  53.1593 106.8709 0001346  86.7540 273.3615 15.31031112331975
STARLINK-1246,45235,53.16,0.0001329,15.30192165,474.32764981778655,476.1492770159639,1 45235U 20012BK  26045.43961278  .00001235  00000+0  53819-4 0  9991,2 45235  53.1600 147.2439 0001329  95.9982 264.1170 15.30192165331419
STARLINK-1270,45237,53.0508,0.0003776,15.43117605,434.3413755959855,439.48810266937744,1 45237U 20012BM  26045.61693623  .00058950  00000+0  13107-2 0  9999,2 45237  53.0508  97.4280 0003776 340.1827  19.9031 15.43117605332107
STARLINK-1279,45360,53.0444,0.0005585,15.52730437,404.9675226300378,412.54848434893574,1 45360U 20019A   26045.62430338  .00081262  00000+0  12867-2 0  9990,2 45360  53.0444 210.2232 0005585 136.2390 223.9062 15.52730437327080
STARLINK-1301,45361,53.0438,0.0007788,15.59430391,384.0340461145015,394.5750130409715,1 45361U 20019B   26045.66668981  .00089634  00000+0  11054-2 0  9990,2 45361  53.0438 216.6137 0007788 138.1648  68.4230 15.59430391  5885
STARLINK-1262,45366,53.0556,0.0001576,15.0642102,546.055710635087,548.2385601945698,1 45366U 20019G   26045.07252342  .00003314  00000+0  24113-3 0  9992,2 45366  53.0556 272.6368 0001576 113.8330 246.2824 15.06421020326170
STARLINK-1273,45367,53.0539,0.0002418,15.41539428,439.91629130175534,443.21429933177023,1 45367U 20019H   26045.60447423  .00046472  00000+0  10931-2 0  9992,2 45367  53.0539 264.4095 0002418 144.1236 215.9931 15.41539428326337
STARLINK-1276,45368,53.0546,0.0001699,15.06397663,546.042102579032,548.3953384528622,1 45368U 20019J   26045.06518494  .00000188  00000+0  31493-4 0  9992,2 45368  53.0546 272.6710 0001699  88.5686 271.5497 15.06397663326172
STARLINK-1277,45369,53.0539,0.0002306,15.44492538,431.29893892582186,434.4401751499281,1 45369U 20019K   26045.23796254  .00059984  00000+0  12730-2 0  9993,2 45369  53.0539 264.5781 0002306  73.8946 286.2314 15.44492538326300
STARLINK-1281,45370,53.0539,0.0001246,15.06379539,546.4113624220972,548.1371749102482,1 45370U 20019L   26045.65126212 -.00000540  00000+0 -17384-4 0  9990,2 45370  53.0539 270.0412 0001246  86.3651 273.7480 15.06379539326262
STARLINK-1300,45374,53.0542,0.0001423,15.06390695,546.2545954119141,548.2255577279066,1 45374U 20019Q   26045.60701536  .00000743  00000+0  68795-4 0  9992,2 45374  53.0542 270.2397 0001423  93.8914 266.2237 15.06390695326258
STARLINK-1302,45375,53.0523,0.0002264,15.4569828,427.7858771483625,430.86829688696434,1 45375U 20019R   26045.59877650  .00078704  00000+0  15966-2 0  9994,2 45375  53.0523 262.2934 0002264 133.1226 226.9970 15.45698280326367
STARLINK-1304,45376,53.0534,0.0004885,15.44174999,430.47562068352727,437.13088631119354,1 45376U 20019S   26044.98606989  .00079517  00000+0  16981-2 0  9993,2 45376  53.0534 262.5645 0004885 139.1952 220.9420 15.44174999326308
STARLINK-1305,45377,53.0463,0.0006383,15.48439873,416.94932827227603,425.6294760172541,1 45377U 20019T   26045.57117948  .00071407  00000+0  13188-2 0  9998,2 45377  53.0463 243.3053 0006383 105.0616 255.1097 15.48439873326639
STARLINK-1319,45379,53.0471,0.0005686,15.54329481,400.2460646545196,407.958827352516,1 45379U 20019V   26045.52457124  .00108293  00000+0  16103-2 0  9992,2 45379  53.0471 242.3477 0005686 114.5471 245.6132 15.54329481326643
STARLINK-1266,45383,53.0515,0.0001648,15.42071153,438.87389878244994,441.1211559226649,1 45383U 20019Z   26045.54446224  .00015095  00000+0  35666-3 0  9991,2 45383  53.0515 242.9574 0001648 137.2661 222.8471 15.42071153326626
STARLINK-1267,45384,53.0531,0.000751,15.45664734,424.313103377217,434.5380623766978,1 45384U 20019AA  26045.56483195  .00072043  00000+0  14639-2 0  9994,2 45384  53.0531 237.5599 0007510 155.2977 204.8390 15.45664734326701
STARLINK-1272,45386,53.0452,0.0006129,15.51646183,407.75769201650564,416.0809430505378,1 45386U 20019AC  26045.51462813  .00092303  00000+0  15161-2 0  9997,2 45386  53.0452 221.6576 0006129 126.5303 233.6271 15.51646183326920
STARLINK-1274,45387,53.0283,0.0008072,15.44056682,428.65235735846636,439.65011548734674,1 45387U 20019AD  26045.63600487  .00061088  00000+0  13141-2 0  9994,2 45387  53.0283 212.8627 0008072 148.9382 211.2102 15.44056682327057
STARLINK-1280,45388,53.0471,0.0006523,15.60414723,382.0456853198675,390.8707762579552,1 45388U 20019AE  26044.86747940  .00129812  00000+0  15322-2 0  9998,2 45388  53.0471 239.0954 0006523 114.7882 245.3810 15.60414723326613
STARLINK-1283,45389,53.0457,0.0010349,15.51430538,405.52082319776673,419.57618405317135,1 45389U 20019AF  26045.66668981  .00063582  00000+0  10573-2 0  9999,2 45389  53.0457 221.1079 0010349 150.3650  63.0135 15.51430538  5855
STARLINK-1284,45390,53.05,0.0001921,15.47632718,422.3466957141427,424.9599435549462,1 45390U 20019AG  26045.52414895  .00089528  00000+0  16955-2 0  9997,2 45390  53.0500 242.0792 0001921 146.3027 213.8102 15.47632718326639
